{
  "type": "FeatureCollection",
  "features": [
    {
      "type": "Feature",
      "properties": {
        "norad_id": 33412,
        "name": "COSMO-SKYMED 3",
        "group": "resource",
        "lat": 40.13365385158561,
        "lon": 29.912969110595604,
        "alt_km": 535.9089530468618,
        "timestamp": "2025-12-18T17:50:14.613063+00:00",
        "meta_object_name": "COSMO-SKYMED 3",
        "meta_object_id": "2008-054A",
        "meta_epoch": "2025-12-18T07:38:57.421824",
        "meta_mean_motion": 15.05407166,
        "meta_eccentricity": 0.00166534,
        "meta_inclination": 97.8472,
        "meta_ra_of_asc_node": 202.8042,
        "meta_arg_of_pericenter": 153.5477,
        "meta_mean_anomaly": 206.6602,
        "meta_ephemeris_type": 0,
        "meta_classification_type": "U",
        "meta_norad_cat_id": 33412,
        "meta_element_set_no": 999,
        "meta_rev_at_epoch": 92971,
        "meta_bstar": 0.00026159275,
        "meta_mean_motion_dot": 3.698e-05,
        "meta_mean_motion_ddot": 0,
        "tle_line1": "1 33412U 08054A   25352.31872016  .00003698  00000+0  26159-3 0  9996",
        "tle_line2": "2 33412  97.8472 202.8042 0016653 153.5477 206.6602 15.05407166929718"
      },
      "geometry": {
        "type": "Point",
        "coordinates": [
          29.912969110595604,
          40.13365385158561
        ]
      }
    },
    {
      "type": "Feature",
      "properties": {
        "norad_id": 33446,
        "name": "YAOGAN-4",
        "group": "resource",
        "lat": -9.010437769820983,
        "lon": -75.95174106405005,
        "alt_km": 618.8001956521248,
        "timestamp": "2025-12-18T17:50:14.613073+00:00",
        "meta_object_name": "YAOGAN-4",
        "meta_object_id": "2008-061A",
        "meta_epoch": "2025-12-18T06:32:26.388096",
        "meta_mean_motion": 14.82698569,
        "meta_eccentricity": 0.00132388,
        "meta_inclination": 97.9188,
        "meta_ra_of_asc_node": 282.3175,
        "meta_arg_of_pericenter": 303.9504,
        "meta_mean_anomaly": 56.0451,
        "meta_ephemeris_type": 0,
        "meta_classification_type": "U",
        "meta_norad_cat_id": 33446,
        "meta_element_set_no": 999,
        "meta_rev_at_epoch": 91885,
        "meta_bstar": 0.0001445107,
        "meta_mean_motion_dot": 1.114e-05,
        "meta_mean_motion_ddot": 0,
        "tle_line1": "1 33446U 08061A   25352.27252764  .00001114  00000+0  14451-3 0  9991",
        "tle_line2": "2 33446  97.9188 282.3175 0013238 303.9504  56.0451 14.82698569918853"
      },
      "geometry": {
        "type": "Point",
        "coordinates": [
          -75.95174106405005,
          -9.010437769820983
        ]
      }
    },
    {
      "type": "Feature",
      "properties": {
        "norad_id": 33492,
        "name": "GOSAT (IBUKI)",
        "group": "resource",
        "lat": 73.93323594218464,
        "lon": 71.72000407781945,
        "alt_km": 661.224610573362,
        "timestamp": "2025-12-18T17:50:14.613084+00:00",
        "meta_object_name": "GOSAT (IBUKI)",
        "meta_object_id": "2009-002A",
        "meta_epoch": "2025-12-18T06:02:14.885088",
        "meta_mean_motion": 14.67536216,
        "meta_eccentricity": 9.866e-05,
        "meta_inclination": 98.0772,
        "meta_ra_of_asc_node": 100.7783,
        "meta_arg_of_pericenter": 99.2052,
        "meta_mean_anomaly": 260.9264,
        "meta_ephemeris_type": 0,
        "meta_classification_type": "U",
        "meta_norad_cat_id": 33492,
        "meta_element_set_no": 999,
        "meta_rev_at_epoch": 90492,
        "meta_bstar": 0.00012553614,
        "meta_mean_motion_dot": 6.64e-06,
        "meta_mean_motion_ddot": 0,
        "tle_line1": "1 33492U 09002A   25352.25156117  .00000664  00000+0  12554-3 0  9992",
        "tle_line2": "2 33492  98.0772 100.7783 0000986  99.2052 260.9264 14.67536216904926"
      },
      "geometry": {
        "type": "Point",
        "coordinates": [
          71.72000407781945,
          73.93323594218464
        ]
      }
    },
    {
      "type": "Feature",
      "properties": {
        "norad_id": 35681,
        "name": "DEIMOS-1",
        "group": "resource",
        "lat": -45.875178256778106,
        "lon": 161.09972713232204,
        "alt_km": 652.8655590346261,
        "timestamp": "2025-12-18T17:50:14.613095+00:00",
        "meta_object_name": "DEIMOS-1",
        "meta_object_id": "2009-041A",
        "meta_epoch": "2025-12-18T06:39:01.414080",
        "meta_mean_motion": 14.74960066,
        "meta_eccentricity": 0.00026555,
        "meta_inclination": 97.7142,
        "meta_ra_of_asc_node": 152.6219,
        "meta_arg_of_pericenter": 70.9033,
        "meta_mean_anomaly": 289.2464,
        "meta_ephemeris_type": 0,
        "meta_classification_type": "U",
        "meta_norad_cat_id": 35681,
        "meta_element_set_no": 999,
        "meta_rev_at_epoch": 88021,
        "meta_bstar": 5.595024e-05,
        "meta_mean_motion_dot": 3.29e-06,
        "meta_mean_motion_ddot": 0,
        "tle_line1": "1 35681U 09041A   25352.27709970  .00000329  00000+0  55950-4 0  9996",
        "tle_line2": "2 35681  97.7142 152.6219 0002655  70.9033 289.2464 14.74960066880218"
      },
      "geometry": {
        "type": "Point",
        "coordinates": [
          161.09972713232204,
          -45.875178256778106
        ]
      }
    },
    {
      "type": "Feature",
      "properties": {
        "norad_id": 35682,
        "name": "DUBAISAT-1",
        "group": "resource",
        "lat": -60.25297846668704,
        "lon": -70.87385535447501,
        "alt_km": 649.478541209538,
        "timestamp": "2025-12-18T17:50:14.613105+00:00",
        "meta_object_name": "DUBAISAT-1",
        "meta_object_id": "2009-041B",
        "meta_epoch": "2025-12-18T06:58:29.759808",
        "meta_mean_motion": 14.74619363,
        "meta_eccentricity": 0.00093247,
        "meta_inclination": 97.9795,
        "meta_ra_of_asc_node": 122.8888,
        "meta_arg_of_pericenter": 294.7299,
        "meta_mean_anomaly": 65.2939,
        "meta_ephemeris_type": 0,
        "meta_classification_type": "U",
        "meta_norad_cat_id": 35682,
        "meta_element_set_no": 999,
        "meta_rev_at_epoch": 87843,
        "meta_bstar": 0.00016705791,
        "meta_mean_motion_dot": 1.064e-05,
        "meta_mean_motion_ddot": 0,
        "tle_line1": "1 35682U 09041B   25352.29062222  .00001064  00000+0  16706-3 0  9993",
        "tle_line2": "2 35682  97.9795 122.8888 0009324 294.7299  65.2939 14.74619363878437"
      },
      "geometry": {
        "type": "Point",
        "coordinates": [
          -70.87385535447501,
          -60.25297846668704
        ]
      }
    },
    {
      "type": "Feature",
      "properties": {
        "norad_id": 35931,
        "name": "OCEANSAT-2",
        "group": "resource",
        "lat": -59.36884432415358,
        "lon": 158.60207347660113,
        "alt_km": 912.210707654649,
        "timestamp": "2025-12-18T17:50:14.613115+00:00",
        "meta_object_name": "OCEANSAT-2",
        "meta_object_id": "2009-051A",
        "meta_epoch": "2025-12-18T06:23:53.959200",
        "meta_mean_motion": 13.99623526,
        "meta_eccentricity": 0.00160735,
        "meta_inclination": 98.2218,
        "meta_ra_of_asc_node": 352.3066,
        "meta_arg_of_pericenter": 30.5811,
        "meta_mean_anomaly": 329.629,
        "meta_ephemeris_type": 0,
        "meta_classification_type": "U",
        "meta_norad_cat_id": 35931,
        "meta_element_set_no": 999,
        "meta_rev_at_epoch": 85402,
        "meta_bstar": -6.7121324e-05,
        "meta_mean_motion_dot": -1.36e-06,
        "meta_mean_motion_ddot": 0,
        "tle_line1": "1 35931U 09051A   25352.26659675 -.00000136  00000+0 -67121-4 0  9991",
        "tle_line2": "2 35931  98.2218 352.3066 0016073  30.5811 329.6290 13.99623526854029"
      },
      "geometry": {
        "type": "Point",
        "coordinates": [
          158.60207347660113,
          -59.36884432415358
        ]
      }
    },
    {
      "type": "Feature",
      "properties": {
        "norad_id": 35946,
        "name": "WORLDVIEW-2 (WV-2)",
        "group": "resource",
        "lat": 73.45788765298778,
        "lon": -86.10899552449666,
        "alt_km": 756.5949768213559,
        "timestamp": "2025-12-18T17:50:14.613126+00:00",
        "meta_object_name": "WORLDVIEW-2 (WV-2)",
        "meta_object_id": "2009-055A",
        "meta_epoch": "2025-12-18T05:39:46.558656",
        "meta_mean_motion": 14.37726407,
        "meta_eccentricity": 0.00050055,
        "meta_inclination": 98.4783,
        "meta_ra_of_asc_node": 63.245,
        "meta_arg_of_pericenter": 57.2437,
        "meta_mean_anomaly": 302.9232,
        "meta_ephemeris_type": 0,
        "meta_classification_type": "U",
        "meta_norad_cat_id": 35946,
        "meta_element_set_no": 999,
        "meta_rev_at_epoch": 84964,
        "meta_bstar": 6.2004655e-05,
        "meta_mean_motion_dot": 1.43e-06,
        "meta_mean_motion_ddot": 0,
        "tle_line1": "1 35946U 09055A   25352.23595554  .00000143  00000+0  62005-4 0  9995",
        "tle_line2": "2 35946  98.4783  63.2450 0005005  57.2437 302.9232 14.37726407849649"
      },
      "geometry": {
        "type": "Point",
        "coordinates": [
          -86.10899552449666,
          73.45788765298778
        ]
      }
    }
  ]
}